     3.03           N: GNSS NAV DATA    G: GPS              RINEX VERSION / TYPE
sbf2rin-13.2.1                          20200306 000709 UTC PGM / RUN BY / DATE 
GPSA   1.0245E-08  0.0000E+00 -5.9605E-08  0.0000E+00       IONOSPHERIC CORR    
GPSB   9.0112E+04  0.0000E+00 -1.9661E+05  0.0000E+00       IONOSPHERIC CORR    
GPUT -1.4551915228E-09 3.108624469E-15 418496 2095          TIME SYSTEM CORR    
    18                                                      LEAP SECONDS        
                                                            END OF HEADER       
G27 2020 03 05 18 00 00-2.299700863659E-04-1.080024958355E-11 0.000000000000E+00
     4.400000000000E+01 8.306250000000E+01 4.250177036933E-09-1.301273531266E-01
     4.287809133530E-06 7.977305678651E-03 4.513189196587E-06 5.153660041809E+03
     4.104000000000E+05-1.303851604462E-08-2.762953183085E+00 1.080334186554E-07
     9.785801618374E-01 2.975312500000E+02 5.129686783816E-01-8.243914820714E-09
     8.143196339671E-11 1.000000000000E+00 2.095000000000E+03 0.000000000000E+00
     2.000000000000E+00 0.000000000000E+00 1.396983861923E-09 4.400000000000E+01
     4.032180000000E+05 4.000000000000E+00
G32 2020 03 05 18 00 00 2.288906835020E-04 9.322320693173E-12 0.000000000000E+00
     8.000000000000E+00 1.846875000000E+01 4.849844872649E-09 6.145888549499E-01
     8.754432201385E-07 3.654991625808E-03 8.247792720795E-06 5.153683893204E+03
     4.104000000000E+05-3.725290298462E-09 3.728044930093E-01 2.980232238770E-08
     9.571570651366E-01 2.194375000000E+02-2.507499172708E+00-8.092837099149E-09
     4.546617956316E-10 1.000000000000E+00 2.095000000000E+03 0.000000000000E+00
     2.000000000000E+00 0.000000000000E+00 4.656612873077E-10 8.000000000000E+00
     4.032180000000E+05 4.000000000000E+00
G16 2020 03 05 18 00 00-1.316927373409E-04-4.206412995700E-12 0.000000000000E+00
     8.500000000000E+01 7.190625000000E+01 3.970165373324E-09 7.679344047389E-01
     4.105269908905E-06 1.148516137619E-02 1.056864857674E-05 5.153729761124E+03
     4.104000000000E+05-8.009374141693E-08 2.563476539270E+00 1.490116119385E-07
     9.796630269659E-01 1.839375000000E+02 6.090438673160E-01-7.824611640768E-09
    -4.114457097939E-10 1.000000000000E+00 2.095000000000E+03 0.000000000000E+00
     2.000000000000E+00 0.000000000000E+00-1.071020960808E-08 8.500000000000E+01
     4.032180000000E+05 4.000000000000E+00
G14 2020 03 05 18 00 00-2.825772389770E-05 2.501110429876E-12 0.000000000000E+00
     9.400000000000E+01 2.096875000000E+01 4.864845497485E-09-3.969523828886E-01
     1.151114702225E-06 1.103755435906E-02 7.996335625648E-06 5.153613239288E+03
     4.104000000000E+05-9.313225746155E-08 4.599727374022E-01 1.043081283569E-07
     9.607575552257E-01 2.296875000000E+02-1.927461828556E+00-8.237485981498E-09
     4.671623163285E-10 1.000000000000E+00 2.095000000000E+03 0.000000000000E+00
     2.000000000000E+00 0.000000000000E+00-9.778887033463E-09 9.400000000000E+01
     4.032180000000E+05 4.000000000000E+00
G08 2020 03 05 18 00 00-2.605048939586E-05-1.364242052659E-12 0.000000000000E+00
     8.100000000000E+01 8.434375000000E+01 4.366610458281E-09 5.147998919390E-02
     4.220753908157E-06 5.255597992800E-03 4.887580871582E-06 5.153634178162E+03
     4.104000000000E+05 3.166496753693E-08-2.776567991110E+00 1.490116119385E-08
     9.701895454545E-01 2.885625000000E+02-1.550846375434E-01-8.234628719625E-09
     7.428880871279E-11 1.000000000000E+00 2.095000000000E+03 0.000000000000E+00
     2.000000000000E+00 0.000000000000E+00 5.122274160385E-09 8.100000000000E+01
     4.032180000000E+05 4.000000000000E+00
G10 2020 03 05 18 00 00-2.673552371562E-04-1.273292582482E-11 0.000000000000E+00
     7.600000000000E+01-1.025312500000E+02 4.098027842166E-09 1.903863391689E+00
    -5.183741450310E-06 5.443300469778E-03 1.073814928532E-05 5.153674354553E+03
     4.104000000000E+05-1.229345798492E-07-6.691722990380E-01 7.636845111847E-08
     9.651410166259E-01 1.739687500000E+02-2.657225346136E+00-7.807110911792E-09
     1.903650723265E-10 1.000000000000E+00 2.095000000000E+03 0.000000000000E+00
     2.000000000000E+00 0.000000000000E+00 1.862645149231E-09 7.600000000000E+01
     4.032180000000E+05 4.000000000000E+00
G26 2020 03 05 18 00 00 1.615886576474E-04 7.617018127348E-12 0.000000000000E+00
     5.000000000000E+01 5.662500000000E+01 4.674123267424E-09 1.658016905619E+00
     3.226101398468E-06 4.693849245086E-03 1.108273863792E-05 5.153585714340E+03
     4.104000000000E+05-1.303851604462E-08 2.442982864499E+00 9.685754776001E-08
     9.477811617240E-01 1.582500000000E+02 2.034536963317E-01-8.077122158844E-09
    -4.314465429089E-10 1.000000000000E+00 2.095000000000E+03 0.000000000000E+00
     2.000000000000E+00 0.000000000000E+00 7.450580596924E-09 5.000000000000E+01
     4.032180000000E+05 4.000000000000E+00
G22 2020 03 05 18 00 00-7.853293791413E-04-2.273736754432E-13 0.000000000000E+00
     7.500000000000E+01-8.875000000000E+01 4.945920303147E-09-1.055273794286E+00
    -4.567205905914E-06 7.141942624003E-03 9.752810001373E-06 5.153560989380E+03
     4.104000000000E+05-8.940696716309E-08-7.494923942238E-01 7.264316082001E-08
     9.300025055602E-01 1.780937500000E+02-1.211991171291E+00-8.290345326159E-09
     2.128660095809E-10 1.000000000000E+00 2.095000000000E+03 0.000000000000E+00
     2.000000000000E+00 0.000000000000E+00-1.816079020500E-08 7.500000000000E+01
     4.032180000000E+05 4.000000000000E+00
G11 2020 03 05 18 00 00-3.425232134759E-04 1.080024958355E-11 0.000000000000E+00
     1.030000000000E+02 8.750000000000E+00 5.593090117511E-09-2.767844932446E+00
     5.569308996201E-07 1.588660571724E-02 7.096678018570E-07 5.153715879440E+03
     4.104000000000E+05 1.564621925354E-07-2.176817217266E+00 1.471489667892E-07
     9.120004310844E-01 3.389062500000E+02 1.965346302688E+00-8.593929400226E-09
     9.286101089098E-12 1.000000000000E+00 2.095000000000E+03 0.000000000000E+00
     2.000000000000E+00 0.000000000000E+00-1.257285475731E-08 1.030000000000E+02
     4.032180000000E+05 4.000000000000E+00
G18 2020 03 05 17 59 44 5.685258656740E-06 1.591615728103E-12 0.000000000000E+00
     8.000000000000E+00-7.025000000000E+01 4.544832167645E-09-2.603666990690E+00
    -3.559514880180E-06 1.570926059503E-02 2.088025212288E-06 5.153634012222E+03
     4.103840000000E+05 1.788139343262E-07-1.768714680512E+00-3.725290298462E-08
     9.574073791974E-01 3.358437500000E+02 1.455869009965E+00-8.056764167995E-09
    -5.857386840816E-11 1.000000000000E+00 2.095000000000E+03 0.000000000000E+00
     2.000000000000E+00 6.300000000000E+01-5.587935447693E-09 8.000000000000E+00
     4.032180000000E+05 4.000000000000E+00
G03 2020 03 05 18 00 00-1.103566028178E-04-9.549694368616E-12 0.000000000000E+00
     4.000000000000E+01-8.031250000000E+01 4.067312277025E-09 2.893258832278E+00
    -4.105269908905E-06 2.660033875145E-03 1.012906432152E-05 5.153608119965E+03
     4.104000000000E+05 5.029141902924E-08-6.660890543570E-01-2.980232238770E-08
     9.651777929235E-01 1.873125000000E+02 7.140329979290E-01-7.749251358852E-09
     2.182233755938E-10 1.000000000000E+00 2.095000000000E+03 0.000000000000E+00
     2.000000000000E+00 0.000000000000E+00 1.862645149231E-09 4.000000000000E+01
     4.032180000000E+05 4.000000000000E+00
G01 2020 03 05 18 00 00-3.161286003888E-04-1.239186531166E-11 0.000000000000E+00
     1.200000000000E+01-7.934375000000E+01 4.083384375064E-09-2.286464801305E+00
    -4.112720489502E-06 9.475244907662E-03 3.203749656677E-06 5.153633817673E+03
     4.104000000000E+05 1.117587089539E-08-1.707479331825E+00-1.061707735062E-07
     9.788323191750E-01 3.275625000000E+02 7.540962398438E-01-7.947473901331E-09
    -2.785830326729E-11 1.000000000000E+00 2.095000000000E+03 0.000000000000E+00
     2.000000000000E+00 0.000000000000E+00 5.587935447693E-09 1.200000000000E+01
     4.032180000000E+05 4.000000000000E+00
G20 2020 03 05 18 00 00 5.278806202114E-04 0.000000000000E+00 0.000000000000E+00
     8.300000000000E+01-1.098437500000E+02 4.790556688772E-09-2.817795190629E+00
    -5.437061190605E-06 5.030250176787E-03 9.972602128983E-06 5.153638500214E+03
     4.104000000000E+05-5.215406417847E-08-7.972357614866E-01 6.891787052155E-08
     9.332671198987E-01 1.697500000000E+02 2.611093239771E+00-8.093194256883E-09
     1.703642392115E-10 1.000000000000E+00 2.095000000000E+03 0.000000000000E+00
     2.000000000000E+00 0.000000000000E+00-8.847564458847E-09 8.300000000000E+01
     4.032180000000E+05 4.000000000000E+00
G31 2020 03 05 18 00 00-2.748798578978E-05-2.501110429876E-12 0.000000000000E+00
     5.700000000000E+01-2.437500000000E+00 4.986993442580E-09 2.836263532206E+00
    -1.359730958939E-07 9.632396977395E-03 7.065013051033E-06 5.153782419205E+03
     4.104000000000E+05-1.695007085800E-07 1.454639640906E+00-5.401670932770E-08
     9.577416940144E-01 2.436250000000E+02 1.252841272954E-01-8.007476400676E-09
    -3.643008888800E-10 1.000000000000E+00 2.095000000000E+03 0.000000000000E+00
     2.000000000000E+00 0.000000000000E+00-1.350417733192E-08 5.700000000000E+01
     4.050480000000E+05 4.000000000000E+00
G04 2020 03 05 18 00 00-5.807122215629E-05-5.343281372916E-12 0.000000000000E+00
     1.160000000000E+02 2.003125000000E+01 4.710910514046E-09-1.080191318053E+00
     1.028180122375E-06 5.840880330652E-04 7.895752787590E-06 5.153709325790E+03
     4.104000000000E+05-3.911554813385E-08 4.120361566969E-01 3.539025783539E-08
     9.602851292387E-01 2.239375000000E+02-2.685148265397E+00-8.040692069956E-09
     5.075211402926E-10 1.000000000000E+00 2.095000000000E+03 0.000000000000E+00
     2.000000000000E+00 0.000000000000E+00-4.190951585770E-09 8.840000000000E+02
     4.068960000000E+05 4.000000000000E+00
